[{"OBJECT_NAME":"LEMUR-2-ANDIS","OBJECT_ID":"2017-042P","EPOCH":"2026-03-09T13:25:33.116448","MEAN_MOTION":15.30557934,"ECCENTRICITY":0.0009101,"INCLINATION":97.3659,"RA_OF_ASC_NODE":249.795,"ARG_OF_PERICENTER":4.3248,"MEAN_ANOMALY":355.807,"EPHEMERIS_TYPE":0,"CLASSIFICATION_TYPE":"U","NORAD_CAT_ID":42838,"ELEMENT_SET_NO":999,"REV_AT_EPOCH":47319,"BSTAR":0.00079875,"MEAN_MOTION_DOT":0.00023598,"MEAN_MOTION_DDOT":0},{"OBJECT_NAME":"STARLINK-31908","OBJECT_ID":"2024-100S","EPOCH":"2026-03-09T12:40:43.455936","MEAN_MOTION":15.27569115,"ECCENTRICITY":0.00013484,"INCLINATION":43.0036,"RA_OF_ASC_NODE":119.2585,"ARG_OF_PERICENTER":225.6709,"MEAN_ANOMALY":134.4033,"EPHEMERIS_TYPE":0,"CLASSIFICATION_TYPE":"U","NORAD_CAT_ID":59901,"ELEMENT_SET_NO":999,"REV_AT_EPOCH":10120,"BSTAR":3.4207979e-5,"MEAN_MOTION_DOT":6.79e-6,"MEAN_MOTION_DDOT":0}]
